[{"OBJECT_NAME":"STARLINK-6207","OBJECT_ID":"2023-083AA","EPOCH":"2026-03-09T22:00:01.999584","MEAN_MOTION":15.08761849,"ECCENTRICITY":7.507e-5,"INCLINATION":43,"RA_OF_ASC_NODE":67.9134,"ARG_OF_PERICENTER":280.0703,"MEAN_ANOMALY":318.1662,"EPHEMERIS_TYPE":0,"CLASSIFICATION_TYPE":"U","NORAD_CAT_ID":56900,"ELEMENT_SET_NO":999,"REV_AT_EPOCH":572,"BSTAR":0.0038851717,"MEAN_MOTION_DOT":0.00062405,"MEAN_MOTION_DDOT":0},{"OBJECT_NAME":"KUIPER-00153","OBJECT_ID":"2025-217M","EPOCH":"2026-03-09T22:00:01.999584","MEAN_MOTION":15.08685712,"ECCENTRICITY":0.00100607,"INCLINATION":51.8801,"RA_OF_ASC_NODE":26.4916,"ARG_OF_PERICENTER":321.9781,"MEAN_ANOMALY":312.405,"EPHEMERIS_TYPE":0,"CLASSIFICATION_TYPE":"U","NORAD_CAT_ID":65773,"ELEMENT_SET_NO":999,"REV_AT_EPOCH":517,"BSTAR":-0.00046487713,"MEAN_MOTION_DOT":-7.667e-5,"MEAN_MOTION_DDOT":0}]
